{
  "type": "FeatureCollection",
  "features": [
    {
      "type": "Feature",
      "properties": {
        "norad_id": 66644,
        "name": "STARLINK-35938",
        "group": "last-30-days",
        "lat": 30.85893130268465,
        "lon": 175.27013298248772,
        "alt_km": 413.85370547466937,
        "timestamp": "2025-12-20T18:51:30.445535+00:00",
        "meta_object_name": "STARLINK-35938",
        "meta_object_id": "2025-271AD",
        "meta_epoch": "2025-12-18T20:14:46.464576",
        "meta_mean_motion": 15.49333178,
        "meta_eccentricity": 5.997e-05,
        "meta_inclination": 53.1591,
        "meta_ra_of_asc_node": 157.9473,
        "meta_arg_of_pericenter": 93.6054,
        "meta_mean_anomaly": 266.5024,
        "meta_ephemeris_type": 0,
        "meta_classification_type": "U",
        "meta_norad_cat_id": 66644,
        "meta_element_set_no": 999,
        "meta_rev_at_epoch": 515,
        "meta_bstar": 0.0013201346,
        "meta_mean_motion_dot": 0.00073731,
        "meta_mean_motion_ddot": 0,
        "tle_line1": "1 66644U 25271AD  25352.84359334  .00073731  00000+0  13201-2 0  9998",
        "tle_line2": "2 66644  53.1591 157.9473 0000599  93.6054 266.5024 15.49333178  5158"
      },
      "geometry": {
        "type": "Point",
        "coordinates": [
          175.27013298248772,
          30.85893130268465
        ]
      }
    },
    {
      "type": "Feature",
      "properties": {
        "norad_id": 66645,
        "name": "SHENZHOU-22",
        "group": "last-30-days",
        "lat": 4.929379298390493,
        "lon": -26.548634183291856,
        "alt_km": 388.3020519318525,
        "timestamp": "2025-12-20T18:51:30.445547+00:00",
        "meta_object_name": "SHENZHOU-22",
        "meta_object_id": "2025-272A",
        "meta_epoch": "2025-12-20T09:36:17.868384",
        "meta_mean_motion": 15.59501485,
        "meta_eccentricity": 0.00077102,
        "meta_inclination": 41.4685,
        "meta_ra_of_asc_node": 330.1895,
        "meta_arg_of_pericenter": 98.1704,
        "meta_mean_anomaly": 262.0009,
        "meta_ephemeris_type": 0,
        "meta_classification_type": "U",
        "meta_norad_cat_id": 66645,
        "meta_element_set_no": 999,
        "meta_rev_at_epoch": 26519,
        "meta_bstar": 0.00021960295,
        "meta_mean_motion_dot": 0.00017645,
        "meta_mean_motion_ddot": 0,
        "tle_line1": "1 66645U 25272A   25354.40020681  .00017645  00000+0  21960-3 0  9998",
        "tle_line2": "2 66645  41.4685 330.1895 0007710  98.1704 262.0009 15.59501485265195"
      },
      "geometry": {
        "type": "Point",
        "coordinates": [
          -26.548634183291856,
          4.929379298390493
        ]
      }
    },
    {
      "type": "Feature",
      "properties": {
        "norad_id": 66647,
        "name": "COSMOS 2597 (RODNIK-S 22)",
        "group": "last-30-days",
        "lat": 64.37395228852367,
        "lon": -62.60701387947176,
        "alt_km": 1497.5845196921673,
        "timestamp": "2025-12-20T18:51:30.445557+00:00",
        "meta_object_name": "COSMOS 2597 (RODNIK-S 22)",
        "meta_object_id": "2025-273A",
        "meta_epoch": "2025-12-20T14:38:25.391904",
        "meta_mean_motion": 12.41952065,
        "meta_eccentricity": 0.00076227,
        "meta_inclination": 82.4993,
        "meta_ra_of_asc_node": 281.562,
        "meta_arg_of_pericenter": 267.987,
        "meta_mean_anomaly": 92.0337,
        "meta_ephemeris_type": 0,
        "meta_classification_type": "U",
        "meta_norad_cat_id": 66647,
        "meta_element_set_no": 999,
        "meta_rev_at_epoch": 311,
        "meta_bstar": 0.00011144214,
        "meta_mean_motion_dot": 2.5e-07,
        "meta_mean_motion_ddot": 0,
        "tle_line1": "1 66647U 25273A   25354.61001611  .00000025  00000+0  11144-3 0  9993",
        "tle_line2": "2 66647  82.4993 281.5620 0007622 267.9870  92.0337 12.41952065  3110"
      },
      "geometry": {
        "type": "Point",
        "coordinates": [
          -62.60701387947176,
          64.37395228852367
        ]
      }
    },
    {
      "type": "Feature",
      "properties": {
        "norad_id": 66648,
        "name": "COSMOS 2598 (RODNIK-S 23)",
        "group": "last-30-days",
        "lat": 41.359051616242276,
        "lon": 94.78778722034518,
        "alt_km": 1488.3065710530382,
        "timestamp": "2025-12-20T18:51:30.445568+00:00",
        "meta_object_name": "COSMOS 2598 (RODNIK-S 23)",
        "meta_object_id": "2025-273B",
        "meta_epoch": "2025-12-20T10:23:29.811552",
        "meta_mean_motion": 12.43233505,
        "meta_eccentricity": 0.00080909,
        "meta_inclination": 82.5032,
        "meta_ra_of_asc_node": 281.6634,
        "meta_arg_of_pericenter": 218.477,
        "meta_mean_anomaly": 141.5734,
        "meta_ephemeris_type": 0,
        "meta_classification_type": "U",
        "meta_norad_cat_id": 66648,
        "meta_element_set_no": 999,
        "meta_rev_at_epoch": 309,
        "meta_bstar": 8.6901978e-05,
        "meta_mean_motion_dot": 2.2e-07,
        "meta_mean_motion_ddot": 0,
        "tle_line1": "1 66648U 25273B   25354.43298393  .00000022  00000+0  86902-4 0  9991",
        "tle_line2": "2 66648  82.5032 281.6634 0008090 218.4770 141.5734 12.43233505  3093"
      },
      "geometry": {
        "type": "Point",
        "coordinates": [
          94.78778722034518,
          41.359051616242276
        ]
      }
    },
    {
      "type": "Feature",
      "properties": {
        "norad_id": 66649,
        "name": "COSMOS 2599 (RODNIK-S 24)",
        "group": "last-30-days",
        "lat": 23.363381204850054,
        "lon": -75.25821310107202,
        "alt_km": 1503.836093556737,
        "timestamp": "2025-12-20T18:51:30.445578+00:00",
        "meta_object_name": "COSMOS 2599 (RODNIK-S 24)",
        "meta_object_id": "2025-273C",
        "meta_epoch": "2025-12-20T12:55:40.329408",
        "meta_mean_motion": 12.4115099,
        "meta_eccentricity": 0.00062637,
        "meta_inclination": 82.5049,
        "meta_ra_of_asc_node": 281.635,
        "meta_arg_of_pericenter": 259.3908,
        "meta_mean_anomaly": 100.6465,
        "meta_ephemeris_type": 0,
        "meta_classification_type": "U",
        "meta_norad_cat_id": 66649,
        "meta_element_set_no": 999,
        "meta_rev_at_epoch": 310,
        "meta_bstar": 5.2717323e-05,
        "meta_mean_motion_dot": 1.7e-07,
        "meta_mean_motion_ddot": 0,
        "tle_line1": "1 66649U 25273C   25354.53866122  .00000017  00000+0  52717-4 0  9995",
        "tle_line2": "2 66649  82.5049 281.6350 0006263 259.3908 100.6465 12.41150990  3107"
      },
      "geometry": {
        "type": "Point",
        "coordinates": [
          -75.25821310107202,
          23.363381204850054
        ]
      }
    },
    {
      "type": "Feature",
      "properties": {
        "norad_id": 66650,
        "name": "BEE-1000",
        "group": "last-30-days",
        "lat": -81.79391823723913,
        "lon": -7.586486940068149,
        "alt_km": 595.3262822322868,
        "timestamp": "2025-12-20T18:51:30.445588+00:00",
        "meta_object_name": "BEE-1000",
        "meta_object_id": "2025-274A",
        "meta_epoch": "2025-12-20T06:22:12.124704",
        "meta_mean_motion": 14.9168456,
        "meta_eccentricity": 0.00107421,
        "meta_inclination": 97.7402,
        "meta_ra_of_asc_node": 281.3151,
        "meta_arg_of_pericenter": 223.4038,
        "meta_mean_anomaly": 136.6336,
        "meta_ephemeris_type": 0,
        "meta_classification_type": "U",
        "meta_norad_cat_id": 66650,
        "meta_element_set_no": 999,
        "meta_rev_at_epoch": 352,
        "meta_bstar": 0.00011025587,
        "meta_mean_motion_dot": 1.054e-05,
        "meta_mean_motion_ddot": 0,
        "tle_line1": "1 66650U 25274A   25354.26541811  .00001054  00000+0  11026-3 0  9992",
        "tle_line2": "2 66650  97.7402 281.3151 0010742 223.4038 136.6336 14.91684560  3523"
      },
      "geometry": {
        "type": "Point",
        "coordinates": [
          -7.586486940068149,
          -81.79391823723913
        ]
      }
    },
    {
      "type": "Feature",
      "properties": {
        "norad_id": 66651,
        "name": "2025-274B",
        "group": "last-30-days",
        "lat": -75.67623932254338,
        "lon": -45.98785261972661,
        "alt_km": 595.8236248050116,
        "timestamp": "2025-12-20T18:51:30.445598+00:00",
        "meta_object_name": "2025-274B",
        "meta_object_id": "2025-274B",
        "meta_epoch": "2025-12-20T06:19:46.114752",
        "meta_mean_motion": 14.91846355,
        "meta_eccentricity": 0.00110302,
        "meta_inclination": 97.7397,
        "meta_ra_of_asc_node": 281.3156,
        "meta_arg_of_pericenter": 222.3856,
        "meta_mean_anomaly": 137.6512,
        "meta_ephemeris_type": 0,
        "meta_classification_type": "U",
        "meta_norad_cat_id": 66651,
        "meta_element_set_no": 999,
        "meta_rev_at_epoch": 352,
        "meta_bstar": 0.00023623719,
        "meta_mean_motion_dot": 2.332e-05,
        "meta_mean_motion_ddot": 0,
        "tle_line1": "1 66651U 25274B   25354.26372818  .00002332  00000+0  23624-3 0  9999",
        "tle_line2": "2 66651  97.7397 281.3156 0011030 222.3856 137.6512 14.91846355  3528"
      },
      "geometry": {
        "type": "Point",
        "coordinates": [
          -45.98785261972661,
          -75.67623932254338
        ]
      }
    }
  ]
}